CS1                     
1 49261U 21088B   26068.75173904  .00015722  00000+0  51176-3 0  9998
2 49261  97.3882 132.1684 0014129  78.0335 282.2490 15.31848439245182
STARLINK-35027          
1 65466U 25195J   26068.76137784  .00012303  00000+0  42683-3 0  9998
2 65466  53.1585 257.9192 0001425 129.1646 230.9482 15.30200090 30003
